STARLINK-34243          
1 64361U 25126T   25238.96793227  .00007982  00000+0  67557-3 0  9999
2 64361  70.0022 165.4515 0002711 271.6489  88.4360 14.98352332 11515
STARLINK-34335          
1 64362U 25126U   25239.20994495  .00011703  00000+0  98614-3 0  9992
2 64362  70.0017 164.6923 0002228 266.6025  93.4880 14.98364429 11554
STARLINK-34408          
1 64363U 25126V   25239.20159780  .00012949  00000+0  10901-2 0  9998
2 64363  70.0019 164.6621 0002863 266.3449  93.7383 14.98362061 11555
STARLINK-34476          
1 64364U 25126W   25239.22244289  .00011195  00000+0  94374-3 0  9999
2 64364  70.0022 164.7342 0002846 269.8632  90.2201 14.98363478 11558
STARLINK-34479          
1 64365U 25126X   25239.19744008  .00006325  00000+0  53731-3 0  9991
2 64365  70.0019 165.0462 0002494 269.2970  90.7903 14.98339654 11542
STARLINK-34484          
1 64366U 25126Y   25239.20576168  .00004733  00000+0  40407-3 0  9991
2 64366  70.0023 164.6737 0002346 269.9661  90.1229 14.98340446 12769
STARLINK-34483          
1 64367U 25126Z   25239.21010348  .00009772  00000+0  82554-3 0  9993
2 64367  70.0024 164.6876 0002927 267.0117  93.0707 14.98332431 11559
STARLINK-34457          
1 64368U 25126AA  25239.04722285  .00003361  00000+0  28930-3 0  9991
2 64368  70.0024 165.3243 0002461 268.0371  92.0506 14.98338475 11529
STARLINK-34444          
1 64369U 25126AB  25239.05156150  .00002831  00000+0  24493-3 0  9996
2 64369  70.0014 165.3377 0002913 267.7210  92.3616 14.98336580 11527
STARLINK-11732 [DTC]    
1 64370U 25127A   25239.20125850  .00232481  00000+0  17619-2 0  9996
2 64370  43.0000 176.9183 0001577 281.4903  78.5787 15.70882625 12910
STARLINK-11731 [DTC]    
1 64371U 25127B   25238.77210231  .00271470  00000+0  20405-2 0  9994
2 64371  42.9997 179.7290 0001875 229.7449 130.3255 15.70959927 12844
STARLINK-11746 [DTC]    
1 64372U 25127C   25239.18532715  .00321370  00000+0  24117-2 0  9994
2 64372  43.0002 176.7907 0001942 278.4225  81.6423 15.70846702 12913
STARLINK-11748 [DTC]    
1 64373U 25127D   25239.16511707  .00249802  00000+0  18750-2 0  9996
2 64373  43.0012 177.5250 0004960 259.7348 100.2961 15.71050062 12907
STARLINK-11739 [DTC]    
1 64374U 25127E   25239.25002315  .00034536  00000+0  27197-3 0  9999
2 64374  42.9999 176.1799 0001651 266.8238 189.7242 15.70800264  5962
STARLINK-11738 [DTC]    
1 64375U 25127F   25239.10063346  .00149739  00000+0  11466-2 0  9998
2 64375  42.9988 177.8985 0001725 259.6467 100.4206 15.70900008 12899
STARLINK-11745 [DTC]    
1 64376U 25127G   25239.19594180  .00222275  00000+0  16839-2 0  9999
2 64376  42.9992 176.8748 0001792 272.7271  87.3392 15.70922978 12916
