[{"OBJECT_NAME":"STARLINK-34243","OBJECT_ID":"2025-126T","EPOCH":"2025-08-26T23:13:49.348128","MEAN_MOTION":14.98352332,"ECCENTRICITY":0.00027111,"INCLINATION":70.0022,"RA_OF_ASC_NODE":165.4515,"ARG_OF_PERICENTER":271.6489,"MEAN_ANOMALY":88.436,"EPHEMERIS_TYPE":0,"CLASSIFICATION_TYPE":"U","NORAD_CAT_ID":64361,"ELEMENT_SET_NO":999,"REV_AT_EPOCH":1151,"BSTAR":0.00067557272,"MEAN_MOTION_DOT":7.982e-5,"MEAN_MOTION_DDOT":0},{"OBJECT_NAME":"STARLINK-34335","OBJECT_ID":"2025-126U","EPOCH":"2025-08-27T05:02:19.243680","MEAN_MOTION":14.98364429,"ECCENTRICITY":0.00022284,"INCLINATION":70.0017,"RA_OF_ASC_NODE":164.6923,"ARG_OF_PERICENTER":266.6025,"MEAN_ANOMALY":93.488,"EPHEMERIS_TYPE":0,"CLASSIFICATION_TYPE":"U","NORAD_CAT_ID":64362,"ELEMENT_SET_NO":999,"REV_AT_EPOCH":1155,"BSTAR":0.00098613764,"MEAN_MOTION_DOT":0.00011703,"MEAN_MOTION_DDOT":0},{"OBJECT_NAME":"STARLINK-34408","OBJECT_ID":"2025-126V","EPOCH":"2025-08-27T04:50:18.049920","MEAN_MOTION":14.98362061,"ECCENTRICITY":0.00028638,"INCLINATION":70.0019,"RA_OF_ASC_NODE":164.6621,"ARG_OF_PERICENTER":266.3449,"MEAN_ANOMALY":93.7383,"EPHEMERIS_TYPE":0,"CLASSIFICATION_TYPE":"U","NORAD_CAT_ID":64363,"ELEMENT_SET_NO":999,"REV_AT_EPOCH":1155,"BSTAR":0.0010901428,"MEAN_MOTION_DOT":0.00012949,"MEAN_MOTION_DDOT":0},{"OBJECT_NAME":"STARLINK-34476","OBJECT_ID":"2025-126W","EPOCH":"2025-08-27T05:20:19.065696","MEAN_MOTION":14.98363478,"ECCENTRICITY":0.00028469,"INCLINATION":70.0022,"RA_OF_ASC_NODE":164.7342,"ARG_OF_PERICENTER":269.8632,"MEAN_ANOMALY":90.2201,"EPHEMERIS_TYPE":0,"CLASSIFICATION_TYPE":"U","NORAD_CAT_ID":64364,"ELEMENT_SET_NO":999,"REV_AT_EPOCH":1155,"BSTAR":0.00094373817,"MEAN_MOTION_DOT":0.00011195,"MEAN_MOTION_DDOT":0},{"OBJECT_NAME":"STARLINK-34479","OBJECT_ID":"2025-126X","EPOCH":"2025-08-27T04:44:18.822912","MEAN_MOTION":14.98339654,"ECCENTRICITY":0.00024947,"INCLINATION":70.0019,"RA_OF_ASC_NODE":165.0462,"ARG_OF_PERICENTER":269.297,"MEAN_ANOMALY":90.7903,"EPHEMERIS_TYPE":0,"CLASSIFICATION_TYPE":"U","NORAD_CAT_ID":64365,"ELEMENT_SET_NO":999,"REV_AT_EPOCH":1154,"BSTAR":0.00053730975,"MEAN_MOTION_DOT":6.325e-5,"MEAN_MOTION_DDOT":0},{"OBJECT_NAME":"STARLINK-34484","OBJECT_ID":"2025-126Y","EPOCH":"2025-08-27T04:56:17.809152","MEAN_MOTION":14.98340446,"ECCENTRICITY":0.00023464,"INCLINATION":70.0023,"RA_OF_ASC_NODE":164.6737,"ARG_OF_PERICENTER":269.9661,"MEAN_ANOMALY":90.1229,"EPHEMERIS_TYPE":0,"CLASSIFICATION_TYPE":"U","NORAD_CAT_ID":64366,"ELEMENT_SET_NO":999,"REV_AT_EPOCH":1276,"BSTAR":0.00040406723,"MEAN_MOTION_DOT":4.733e-5,"MEAN_MOTION_DDOT":0},{"OBJECT_NAME":"STARLINK-34483","OBJECT_ID":"2025-126Z","EPOCH":"2025-08-27T05:02:32.940672","MEAN_MOTION":14.98332431,"ECCENTRICITY":0.00029279,"INCLINATION":70.0024,"RA_OF_ASC_NODE":164.6876,"ARG_OF_PERICENTER":267.0117,"MEAN_ANOMALY":93.0707,"EPHEMERIS_TYPE":0,"CLASSIFICATION_TYPE":"U","NORAD_CAT_ID":64367,"ELEMENT_SET_NO":999,"REV_AT_EPOCH":1155,"BSTAR":0.00082554092,"MEAN_MOTION_DOT":9.772e-5,"MEAN_MOTION_DDOT":0},{"OBJECT_NAME":"STARLINK-34457","OBJECT_ID":"2025-126AA","EPOCH":"2025-08-27T01:08:00.054240","MEAN_MOTION":14.98338475,"ECCENTRICITY":0.00024614,"INCLINATION":70.0024,"RA_OF_ASC_NODE":165.3243,"ARG_OF_PERICENTER":268.0371,"MEAN_ANOMALY":92.0506,"EPHEMERIS_TYPE":0,"CLASSIFICATION_TYPE":"U","NORAD_CAT_ID":64368,"ELEMENT_SET_NO":999,"REV_AT_EPOCH":1152,"BSTAR":0.00028929683,"MEAN_MOTION_DOT":3.361e-5,"MEAN_MOTION_DDOT":0},{"OBJECT_NAME":"STARLINK-34444","OBJECT_ID":"2025-126AB","EPOCH":"2025-08-27T01:14:14.913600","MEAN_MOTION":14.9833658,"ECCENTRICITY":0.0002913,"INCLINATION":70.0014,"RA_OF_ASC_NODE":165.3377,"ARG_OF_PERICENTER":267.721,"MEAN_ANOMALY":92.3616,"EPHEMERIS_TYPE":0,"CLASSIFICATION_TYPE":"U","NORAD_CAT_ID":64369,"ELEMENT_SET_NO":999,"REV_AT_EPOCH":1152,"BSTAR":0.00024492785,"MEAN_MOTION_DOT":2.831e-5,"MEAN_MOTION_DDOT":0},{"OBJECT_NAME":"STARLINK-11732 [DTC]","OBJECT_ID":"2025-127A","EPOCH":"2025-08-27T04:49:48.734400","MEAN_MOTION":15.70882625,"ECCENTRICITY":0.00015774,"INCLINATION":43,"RA_OF_ASC_NODE":176.9183,"ARG_OF_PERICENTER":281.4903,"MEAN_ANOMALY":78.5787,"EPHEMERIS_TYPE":0,"CLASSIFICATION_TYPE":"U","NORAD_CAT_ID":64370,"ELEMENT_SET_NO":999,"REV_AT_EPOCH":1291,"BSTAR":0.0017619061,"MEAN_MOTION_DOT":0.00232481,"MEAN_MOTION_DDOT":0},{"OBJECT_NAME":"STARLINK-11731 [DTC]","OBJECT_ID":"2025-127B","EPOCH":"2025-08-26T18:31:49.639584","MEAN_MOTION":15.70959927,"ECCENTRICITY":0.00018757,"INCLINATION":42.9997,"RA_OF_ASC_NODE":179.729,"ARG_OF_PERICENTER":229.7449,"MEAN_ANOMALY":130.3255,"EPHEMERIS_TYPE":0,"CLASSIFICATION_TYPE":"U","NORAD_CAT_ID":64371,"ELEMENT_SET_NO":999,"REV_AT_EPOCH":1284,"BSTAR":0.0020404807,"MEAN_MOTION_DOT":0.0027147,"MEAN_MOTION_DDOT":0},{"OBJECT_NAME":"STARLINK-11746 [DTC]","OBJECT_ID":"2025-127C","EPOCH":"2025-08-27T04:26:52.265760","MEAN_MOTION":15.70846702,"ECCENTRICITY":0.00019427,"INCLINATION":43.0002,"RA_OF_ASC_NODE":176.7907,"ARG_OF_PERICENTER":278.4225,"MEAN_ANOMALY":81.6423,"EPHEMERIS_TYPE":0,"CLASSIFICATION_TYPE":"U","NORAD_CAT_ID":64372,"ELEMENT_SET_NO":999,"REV_AT_EPOCH":1291,"BSTAR":0.0024117366,"MEAN_MOTION_DOT":0.0032137,"MEAN_MOTION_DDOT":0},{"OBJECT_NAME":"STARLINK-11748 [DTC]","OBJECT_ID":"2025-127D","EPOCH":"2025-08-27T03:57:46.114848","MEAN_MOTION":15.71050062,"ECCENTRICITY":0.00049603,"INCLINATION":43.0012,"RA_OF_ASC_NODE":177.525,"ARG_OF_PERICENTER":259.7348,"MEAN_ANOMALY":100.2961,"EPHEMERIS_TYPE":0,"CLASSIFICATION_TYPE":"U","NORAD_CAT_ID":64373,"ELEMENT_SET_NO":999,"REV_AT_EPOCH":1290,"BSTAR":0.0018750346,"MEAN_MOTION_DOT":0.00249802,"MEAN_MOTION_DDOT":0},{"OBJECT_NAME":"STARLINK-11739 [DTC]","OBJECT_ID":"2025-127E","EPOCH":"2025-08-27T06:00:02.000160","MEAN_MOTION":15.70800264,"ECCENTRICITY":0.00016515,"INCLINATION":42.9999,"RA_OF_ASC_NODE":176.1799,"ARG_OF_PERICENTER":266.8238,"MEAN_ANOMALY":189.7242,"EPHEMERIS_TYPE":0,"CLASSIFICATION_TYPE":"U","NORAD_CAT_ID":64374,"ELEMENT_SET_NO":999,"REV_AT_EPOCH":596,"BSTAR":0.00027196909,"MEAN_MOTION_DOT":0.00034536,"MEAN_MOTION_DDOT":0},{"OBJECT_NAME":"STARLINK-11738 [DTC]","OBJECT_ID":"2025-127F","EPOCH":"2025-08-27T02:24:54.730944","MEAN_MOTION":15.70900008,"ECCENTRICITY":0.00017251,"INCLINATION":42.9988,"RA_OF_ASC_NODE":177.8985,"ARG_OF_PERICENTER":259.6467,"MEAN_ANOMALY":100.4206,"EPHEMERIS_TYPE":0,"CLASSIFICATION_TYPE":"U","NORAD_CAT_ID":64375,"ELEMENT_SET_NO":999,"REV_AT_EPOCH":1289,"BSTAR":0.0011466378,"MEAN_MOTION_DOT":0.00149739,"MEAN_MOTION_DDOT":0},{"OBJECT_NAME":"STARLINK-11745 [DTC]","OBJECT_ID":"2025-127G","EPOCH":"2025-08-27T04:42:09.371520","MEAN_MOTION":15.70922978,"ECCENTRICITY":0.00017921,"INCLINATION":42.9992,"RA_OF_ASC_NODE":176.8748,"ARG_OF_PERICENTER":272.7271,"MEAN_ANOMALY":87.3392,"EPHEMERIS_TYPE":0,"CLASSIFICATION_TYPE":"U","NORAD_CAT_ID":64376,"ELEMENT_SET_NO":999,"REV_AT_EPOCH":1291,"BSTAR":0.0016839388,"MEAN_MOTION_DOT":0.00222275,"MEAN_MOTION_DDOT":0}]
